{"type": "FeatureCollection", "features": [ {"type": "Feature", "properties": {"norad_id": 44543, "name": "BEIDOU-3 M23 (C45)", "group": "beidou", "lat": -2.8176760930259834, "lon": -172.74741299285176, "alt_km": 21513.727990154308, "timestamp": "2025-12-04T10:51:50.370989+00:00", "meta": {"OBJECT_NAME": "BEIDOU-3 M23 (C45)", "OBJECT_ID": "2019-061B", "EPOCH": "2025-12-04T04:33:30.400416", "MEAN_MOTION": 1.86227468, "ECCENTRICITY": 0.0006118, "INCLINATION": 54.3989, "RA_OF_ASC_NODE": 189.2733, "ARG_OF_PERICENTER": 22.8981, "MEAN_ANOMALY": 157.6124, "EPHEMERIS_TYPE": 0, "CLASSIFICATION_TYPE": "U", "NORAD_CAT_ID": 44543, "ELEMENT_SET_NO": 999, "REV_AT_EPOCH": 4216, "BSTAR": 0, "MEAN_MOTION_DOT": 1.08e-06, "MEAN_MOTION_DDOT": 0}, "tle": {"line1": "1 44543U 19061B   25338.18993519  .00000108  00000+0  00000+0 0  9990", "line2": "2 44543  54.3989 189.2733 0006118  22.8981 157.6124  1.86227468 42162"}}, "geometry": {"type": "Point", "coordinates": [-172.74741299285176, -2.8176760930259834]}}, {"type": "Feature", "properties": {"norad_id": 44709, "name": "BEIDOU-3 IGSO-3 (C40)", "group": "beidou", "lat": 49.21843922299563, "lon": -23.27453029646408, "alt_km": 35893.17689842169, "timestamp": "2025-12-04T10:51:50.371001+00:00", "meta": {"OBJECT_NAME": "BEIDOU-3 IGSO-3 (C40)", "OBJECT_ID": "2019-073A", "EPOCH": "2025-11-20T07:11:22.740000", "MEAN_MOTION": 1.00250097, "ECCENTRICITY": 0.0044538, "INCLINATION": 55.163, "RA_OF_ASC_NODE": 283.159, "ARG_OF_PERICENTER": 191.5856, "MEAN_ANOMALY": 168.2409, "EPHEMERIS_TYPE": 0, "CLASSIFICATION_TYPE": "U", "NORAD_CAT_ID": 44709, "ELEMENT_SET_NO": 999, "REV_AT_EPOCH": 2236, "BSTAR": 0, "MEAN_MOTION_DOT": -2.06e-06, "MEAN_MOTION_DDOT": 0}, "tle": {"line1": "1 44709U 19073A   25324.29956875 -.00000206  00000+0  00000+0 0  9998", "line2": "2 44709  55.1630 283.1590 0044538 191.5856 168.2409  1.00250097 22360"}}, "geometry": {"type": "Point", "coordinates": [-23.27453029646408, 49.21843922299563]}}, {"type": "Feature", "properties": {"norad_id": 44793, "name": "BEIDOU-3 M22 (C44)", "group": "beidou", "lat": -8.89581019206699, "lon": 133.15714153639186, "alt_km": 21544.71961618714, "timestamp": "2025-12-04T10:51:50.371015+00:00", "meta": {"OBJECT_NAME": "BEIDOU-3 M22 (C44)", "OBJECT_ID": "2019-078A", "EPOCH": "2025-12-02T00:28:58.554624", "MEAN_MOTION": 1.86231817, "ECCENTRICITY": 0.00056333, "INCLINATION": 54.1183, "RA_OF_ASC_NODE": 306.7625, "ARG_OF_PERICENTER": 22.616, "MEAN_ANOMALY": 337.398, "EPHEMERIS_TYPE": 0, "CLASSIFICATION_TYPE": "U", "NORAD_CAT_ID": 44793, "ELEMENT_SET_NO": 999, "REV_AT_EPOCH": 4097, "BSTAR": 0, "MEAN_MOTION_DOT": -6.1e-07, "MEAN_MOTION_DDOT": 0}, "tle": {"line1": "1 44793U 19078A   25336.02012216 -.00000061  00000+0  00000+0 0  9991", "line2": "2 44793  54.1183 306.7625 0005633  22.6160 337.3980  1.86231817 40974"}}, "geometry": {"type": "Point", "coordinates": [133.15714153639186, -8.89581019206699]}}, {"type": "Feature", "properties": {"norad_id": 44794, "name": "BEIDOU-3 M21 (C43)", "group": "beidou", "lat": 53.15960183266047, "lon": 51.43849125021969, "alt_km": 21521.91464300748, "timestamp": "2025-12-04T10:51:50.371026+00:00", "meta": {"OBJECT_NAME": "BEIDOU-3 M21 (C43)", "OBJECT_ID": "2019-078B", "EPOCH": "2025-12-01T02:00:26.030304", "MEAN_MOTION": 1.86227539, "ECCENTRICITY": 0.00038706, "INCLINATION": 54.0922, "RA_OF_ASC_NODE": 306.7607, "ARG_OF_PERICENTER": 10.0971, "MEAN_ANOMALY": 349.9036, "EPHEMERIS_TYPE": 0, "CLASSIFICATION_TYPE": "U", "NORAD_CAT_ID": 44794, "ELEMENT_SET_NO": 999, "REV_AT_EPOCH": 4096, "BSTAR": 0, "MEAN_MOTION_DOT": -5.7e-07, "MEAN_MOTION_DDOT": 0}, "tle": {"line1": "1 44794U 19078B   25335.08363461 -.00000057  00000+0  00000+0 0  9993", "line2": "2 44794  54.0922 306.7607 0003870  10.0971 349.9036  1.86227539 40963"}}, "geometry": {"type": "Point", "coordinates": [51.43849125021969, 53.15960183266047]}}, {"type": "Feature", "properties": {"norad_id": 44864, "name": "BEIDOU-3 M19 (C41)", "group": "beidou", "lat": -49.312520673053946, "lon": 18.66402531828466, "alt_km": 21485.34292596383, "timestamp": "2025-12-04T10:51:50.371038+00:00", "meta": {"OBJECT_NAME": "BEIDOU-3 M19 (C41)", "OBJECT_ID": "2019-090A", "EPOCH": "2025-12-02T22:27:31.551840", "MEAN_MOTION": 1.86231053, "ECCENTRICITY": 0.00175607, "INCLINATION": 56.3847, "RA_OF_ASC_NODE": 69.2872, "ARG_OF_PERICENTER": 284.9296, "MEAN_ANOMALY": 72.494, "EPHEMERIS_TYPE": 0, "CLASSIFICATION_TYPE": "U", "NORAD_CAT_ID": 44864, "ELEMENT_SET_NO": 999, "REV_AT_EPOCH": 4057, "BSTAR": 0, "MEAN_MOTION_DOT": -4.9e-07, "MEAN_MOTION_DDOT": 0}, "tle": {"line1": "1 44864U 19090A   25336.93578185 -.00000049  00000+0  00000+0 0  9992", "line2": "2 44864  56.3847  69.2872 0017560 284.9296  72.4940  1.86231053 40575"}}, "geometry": {"type": "Point", "coordinates": [18.66402531828466, -49.312520673053946]}}, {"type": "Feature", "properties": {"norad_id": 44865, "name": "BEIDOU-3 M20 (C42)", "group": "beidou", "lat": 19.961988578674035, "lon": 83.2327078301091, "alt_km": 21523.142501802522, "timestamp": "2025-12-04T10:51:50.371050+00:00", "meta": {"OBJECT_NAME": "BEIDOU-3 M20 (C42)", "OBJECT_ID": "2019-090B", "EPOCH": "2025-12-02T19:15:49.919904", "MEAN_MOTION": 1.86231044, "ECCENTRICITY": 0.00146831, "INCLINATION": 56.3861, "RA_OF_ASC_NODE": 69.3259, "ARG_OF_PERICENTER": 297.6742, "MEAN_ANOMALY": 60.1134, "EPHEMERIS_TYPE": 0, "CLASSIFICATION_TYPE": "U", "NORAD_CAT_ID": 44865, "ELEMENT_SET_NO": 999, "REV_AT_EPOCH": 4055, "BSTAR": 0, "MEAN_MOTION_DOT": -4.8e-07, "MEAN_MOTION_DDOT": 0}, "tle": {"line1": "1 44865U 19090B   25336.80266111 -.00000048  00000+0  00000+0 0  9991", "line2": "2 44865  56.3861  69.3259 0014683 297.6742  60.1134  1.86231044 40559"}}, "geometry": {"type": "Point", "coordinates": [83.2327078301091, 19.961988578674035]}}, {"type": "Feature", "properties": {"norad_id": 45344, "name": "BEIDOU-3 G2 (C60)", "group": "beidou", "lat": -2.985508509504503, "lon": -43.46852625663061, "alt_km": 35767.52338339965, "timestamp": "2025-12-04T10:51:50.371061+00:00", "meta": {"OBJECT_NAME": "BEIDOU-3 G2 (C60)", "OBJECT_ID": "2020-017A", "EPOCH": "2025-12-04T03:50:04.560000", "MEAN_MOTION": 1.00270213, "ECCENTRICITY": 0.0004673, "INCLINATION": 2.9843, "RA_OF_ASC_NODE": 43.5798, "ARG_OF_PERICENTER": 263.9443, "MEAN_ANOMALY": 263.2835, "EPHEMERIS_TYPE": 0, "CLASSIFICATION_TYPE": "U", "NORAD_CAT_ID": 45344, "ELEMENT_SET_NO": 999, "REV_AT_EPOCH": 2130, "BSTAR": 0, "MEAN_MOTION_DOT": -1.27e-06, "MEAN_MOTION_DDOT": 0}, "tle": {"line1": "1 45344U 20017A   25338.15977500 -.00000127  00000+0  00000+0 0  9994", "line2": "2 45344   2.9843  43.5798 0004673 263.9443 263.2835  1.00270213 21306"}}, "geometry": {"type": "Point", "coordinates": [-43.46852625663061, -2.985508509504503]}}, {"type": "Feature", "properties": {"norad_id": 45807, "name": "BEIDOU-3 G3 (C61)", "group": "beidou", "lat": -1.9276685963401936, "lon": -13.059669567069047, "alt_km": 35768.749044447286, "timestamp": "2025-12-04T10:51:50.371073+00:00", "meta": {"OBJECT_NAME": "BEIDOU-3 G3 (C61)", "OBJECT_ID": "2020-040A", "EPOCH": "2025-12-03T19:25:06.201984", "MEAN_MOTION": 1.00266369, "ECCENTRICITY": 0.00050172, "INCLINATION": 1.9679, "RA_OF_ASC_NODE": 66.532, "ARG_OF_PERICENTER": 304.61, "MEAN_ANOMALY": 103.5286, "EPHEMERIS_TYPE": 0, "CLASSIFICATION_TYPE": "U", "NORAD_CAT_ID": 45807, "ELEMENT_SET_NO": 999, "REV_AT_EPOCH": 2011, "BSTAR": 0, "MEAN_MOTION_DOT": -3.37e-06, "MEAN_MOTION_DDOT": 0}, "tle": {"line1": "1 45807U 20040A   25337.80909956 -.00000337  00000+0  00000+0 0  9998", "line2": "2 45807   1.9679  66.5320 0005017 304.6100 103.5286  1.00266369 20119"}}, "geometry": {"type": "Point", "coordinates": [-13.059669567069047, -1.9276685963401936]}}, {"type": "Feature", "properties": {"norad_id": 56564, "name": "BEIDOU-3 G4 (C62)", "group": "beidou", "lat": 0.856390709250992, "lon": 36.50602711736862, "alt_km": 35796.94924232543, "timestamp": "2025-12-04T10:51:50.371085+00:00", "meta": {"OBJECT_NAME": "BEIDOU-3 G4 (C62)", "OBJECT_ID": "2023-066A", "EPOCH": "2025-12-04T04:12:54.872640", "MEAN_MOTION": 1.00270929, "ECCENTRICITY": 0.0003299, "INCLINATION": 0.835, "RA_OF_ASC_NODE": 301.3048, "ARG_OF_PERICENTER": 235.8182, "MEAN_ANOMALY": 119.4268, "EPHEMERIS_TYPE": 0, "CLASSIFICATION_TYPE": "U", "NORAD_CAT_ID": 56564, "ELEMENT_SET_NO": 999, "REV_AT_EPOCH": 943, "BSTAR": 0, "MEAN_MOTION_DOT": -9.4e-07, "MEAN_MOTION_DDOT": 0}, "tle": {"line1": "1 56564U 23066A   25338.17563510 -.00000094  00000+0  00000+0 0  9994", "line2": "2 56564   0.8350 301.3048 0003299 235.8182 119.4268  1.00270929  9432"}}, "geometry": {"type": "Point", "coordinates": [36.50602711736862, 0.856390709250992]}}, {"type": "Feature", "properties": {"norad_id": 58654, "name": "BEIDOU-3 M28 (C50)", "group": "beidou", "lat": 36.5924850856573, "lon": 99.43912936877665, "alt_km": 21528.104472017538, "timestamp": "2025-12-04T10:51:50.371097+00:00", "meta": {"OBJECT_NAME": "BEIDOU-3 M28 (C50)", "OBJECT_ID": "2023-207A", "EPOCH": "2025-12-02T18:32:49.254720", "MEAN_MOTION": 1.86229565, "ECCENTRICITY": 0.00020071, "INCLINATION": 55.5759, "RA_OF_ASC_NODE": 68.9391, "ARG_OF_PERICENTER": 265.1815, "MEAN_ANOMALY": 94.7983, "EPHEMERIS_TYPE": 0, "CLASSIFICATION_TYPE": "U", "NORAD_CAT_ID": 58654, "ELEMENT_SET_NO": 999, "REV_AT_EPOCH": 1318, "BSTAR": 0, "MEAN_MOTION_DOT": -4.9e-07, "MEAN_MOTION_DDOT": 0}, "tle": {"line1": "1 58654U 23207A   25336.77279230 -.00000049  00000+0  00000+0 0  9990", "line2": "2 58654  55.5759  68.9391 0002007 265.1815  94.7983  1.86229565 13186"}}, "geometry": {"type": "Point", "coordinates": [99.43912936877665, 36.5924850856573]}}]}